NORAD_CAT_ID,OBJECT_NAME,OBJECT_TYPE,EPOCH,MEAN_MOTION,ECCENTRICITY,INCLINATION,RA_OF_ASC_NODE,ARG_OF_PERICENTER,MEAN_ANOMALY,BSTAR,MEAN_MOTION_DOT,MEAN_MOTION_DDOT,TLE_LINE0,TLE_LINE1,TLE_LINE2,SEMIMAJOR_AXIS,PERIOD,APOGEE,PERIGEE,DECAYED
53262.0,STARLINK-4085,PAYLOAD,2022-10-02 14:00:01,15.08864926,9.52e-05,53.2159,64.0077,68.2852,95.4236,-0.00091813,-0.0001488,0.0,0 STARLINK-4085,1 53262U 22086W   22275.58334491 -.00014880  00000-0 -91813-3 0  9999,2 53262  53.2159  64.0077 0000952  68.2852  95.4236 15.08864926  1308,6917.804,95.436,540.328,539.011,0.0
53262.0,STARLINK-4085,PAYLOAD,2022-10-02 22:00:00,15.08871768,0.000111,53.2161,62.5121,58.5604,116.7656,-0.0015275,-0.00024536,0.0,0 STARLINK-4085,1 53262U 22086W   22275.91667824 -.00024536  00000-0 -15275-2 0  9991,2 53262  53.2161  62.5121 0001110  58.5604 116.7656 15.08871768 11607,6917.783,95.436,540.4159999999998,538.88,0.0
53262.0,STARLINK-4085,PAYLOAD,2022-10-03 14:00:01,15.08816337,0.0001359,53.2166,59.5186,70.0525,128.4766,0.0016757,0.00026464,0.0,0 STARLINK-4085,1 53262U 22086W   22276.58334491  .00026464  00000-0  16757-2 0  9992,2 53262  53.2166  59.5186 0001359  70.0525 128.4766 15.08816337  1304,6917.953,95.439,540.758,538.878,0.0
53262.0,STARLINK-4085,PAYLOAD,2022-10-03 22:00:00,15.08868512,0.0001498,53.2164,58.0228,64.3333,145.7699,-0.0005261,-8.658e-05,0.0,0 STARLINK-4085,1 53262U 22086W   22276.91667824 -.00008658  00000-0 -52610-3 0  9994,2 53262  53.2164  58.0228 0001498  64.3333 145.7699 15.08868512  1309,6917.793000000002,95.436,540.695,538.622,0.0
53262.0,STARLINK-4085,PAYLOAD,2022-10-04 06:00:00,15.08831235,0.0001486999999999,53.2167,56.5246,73.406,148.3327,0.0031694,0.00050503,0.0,0 STARLINK-4085,1 53262U 22086W   22277.25001157  .00050503  00000-0  31694-2 0  9995,2 53262  53.2167  56.5246 0001487  73.4060 148.3327 15.08831235 11806,6917.906999999997,95.438,540.8009999999998,538.743,0.0
53262.0,STARLINK-4085,PAYLOAD,2022-10-04 14:00:01,15.08862115,0.0001635,53.2168,55.0294,71.0361,162.3079,-0.0015902,-0.00025522,0.0,0 STARLINK-4085,1 53262U 22086W   22277.58334491 -.00025522  00000-0 -15902-2 0  9990,2 53262  53.2168  55.0294 0001635  71.0361 162.3079 15.08862115  1302,6917.813,95.436,540.809,538.547,0.0
53262.0,STARLINK-4085,PAYLOAD,2022-10-04 22:00:00,15.0886278,0.0001621999999999,53.2165,53.5342,65.9241,179.0229,-0.00098153,-0.00015885,0.0,0 STARLINK-4085,1 53262U 22086W   22277.91667824 -.00015885  00000-0 -98153-3 0  9997,2 53262  53.2165  53.5342 0001622  65.9241 179.0229 15.08862780  1301,6917.811,95.436,540.798,538.554,0.0
53262.0,STARLINK-4085,PAYLOAD,2022-10-05 14:00:01,15.08824768,0.0001529,53.2176,50.5466,65.1048,203.1232,0.0011143,0.00017483,0.0,0 STARLINK-4085,1 53262U 22086W   22278.58335648  .00017483  00000-0  11143-2 0  9994,2 53262  53.2176  50.5466 0001529  65.1048 203.1232 15.08824768  1307,6917.927,95.439,540.85,538.734,0.0
53262.0,STARLINK-4085,PAYLOAD,2022-10-05 22:00:00,15.08838891,0.0001543,53.2172,49.0529,58.6686,221.0796,-0.00025554,-4.353e-05,0.0,0 STARLINK-4085,1 53262U 22086W   22278.91667824 -.00004353  00000-0 -25554-3 0  9991,2 53262  53.2172  49.0529 0001543  58.6686 221.0796 15.08838891  1303,6917.884,95.438,540.816,538.681,0.0
53262.0,STARLINK-4085,PAYLOAD,2022-10-06 06:00:00,15.08816424,0.0001486999999999,53.217,47.5499,72.3061,219.0488,0.0021665,0.00034338,0.0,0 STARLINK-4085,1 53262U 22086W   22279.25001157  .00034338  00000-0  21665-2 0  9992,2 53262  53.2170  47.5499 0001487  72.3061 219.0488 15.08816424 12111,6917.9519999999975,95.439,540.846,538.789,0.0
53262.0,STARLINK-4085,PAYLOAD,2022-10-06 14:00:01,15.08830004,0.0001668,53.2176,46.058,68.2327,234.7055,0.00066397,0.00010292,0.0,0 STARLINK-4085,1 53262U 22086W   22279.58334491  .00010292  00000-0  66397-3 0  9993,2 53262  53.2176  46.0580 0001668  68.2327 234.7055 15.08830004  1305,6917.911,95.438,540.93,538.622,0.0
53262.0,STARLINK-4085,PAYLOAD,2022-10-06 22:42:55,15.08858232,0.0001398,53.2163,44.4206,61.5485,54.9042,0.0001608,2.273e-05,0.0,0 STARLINK-4085,1 53262U 22086W   22279.94646991  .00002273  00000-0  16080-3 0  9998,2 53262  53.2163  44.4206 0001398  61.5485  54.9042 15.08858232  1300,6917.825,95.436,540.6569999999998,538.7230000000002,0.0
53262.0,STARLINK-4085,PAYLOAD,2022-10-07 06:00:00,15.08843539,0.0001234,53.2163,43.0566,69.7897,256.3705,0.0010595,0.00016616,0.0,0 STARLINK-4085,1 53262U 22086W   22280.25001157  .00016616  00000-0  10595-2 0  9993,2 53262  53.2163  43.0566 0001234  69.7897 256.3705 15.08843539 12265,6917.87,95.437,540.5880000000002,538.881,0.0
53262.0,STARLINK-4085,PAYLOAD,2022-10-07 14:00:01,15.08859931,0.0001274,53.2164,41.5618,60.2528,277.5139,-0.0024778,-0.00039527,0.0,0 STARLINK-4085,1 53262U 22086W   22280.58334491 -.00039527  00000-0 -24778-2 0  9995,2 53262  53.2164  41.5618 0001274  60.2528 277.5139 15.08859931  1300,6917.819,95.436,540.566,538.803,0.0
53262.0,STARLINK-4085,PAYLOAD,2022-10-07 22:00:00,15.08862419,0.0001329,53.2162,40.0652,56.0178,293.3459,-0.0045641999999999,-0.00072243,0.0,0 STARLINK-4085,1 53262U 22086W   22280.91667824 -.00072243  00000-0 -45642-2 0  9996,2 53262  53.2162  40.0652 0001329  56.0178 293.3459 15.08862419 12369,6917.812,95.436,540.596,538.757,0.0
53262.0,STARLINK-4085,PAYLOAD,2022-10-08 14:00:01,15.08826299,0.0001533,53.2165,37.0728,61.4408,311.0703,0.00054566,8.404e-05,0.0,0 STARLINK-4085,1 53262U 22086W   22281.58334491  .00008404  00000-0  54566-3 0  9993,2 53262  53.2165  37.0728 0001533  61.4408 311.0703 15.08826299  1303,6917.922,95.438,540.8480000000002,538.727,0.0
53262.0,STARLINK-4085,PAYLOAD,2022-10-08 22:00:00,15.08867208,0.0001559,53.2165,35.5762,57.5044,326.5877,-0.0024739999999999,-0.00039476,0.0,0 STARLINK-4085,1 53262U 22086W   22281.91667824 -.00039476  00000-0 -24740-2 0  9994,2 53262  53.2165  35.5762 0001559  57.5044 326.5877 15.08867208  1302,6917.797,95.436,540.741,538.5840000000002,0.0
53262.0,STARLINK-4085,PAYLOAD,2022-10-09 14:00:01,15.0884592,0.0001821,53.2169,32.5838,62.148,345.1539,-0.00081894,-0.000133,0.0,0 STARLINK-4085,1 53262U 22086W   22282.58334491 -.00013300  00000-0 -81894-3 0  9991,2 53262  53.2169  32.5838 0001821  62.1480 345.1539 15.08845920  1304,6917.861999999999,95.437,540.987,538.4680000000002,0.0
53262.0,STARLINK-4085,PAYLOAD,2022-10-09 22:00:00,15.08846344,0.0001735,53.217,31.0871,57.8463,1.0512,-1.4724000000000008e-05,-5.22e-06,0.0,0 STARLINK-4085,1 53262U 22086W   22282.91667824 -.00000522  00000-0 -14724-4 0  9998,2 53262  53.2170  31.0871 0001735  57.8463   1.0512 15.08846344 12664,6917.861,95.437,540.9259999999998,538.526,0.0
53262.0,STARLINK-4085,PAYLOAD,2022-10-10 14:00:01,15.08898784,0.0001649,53.2174,28.0989,59.1306,22.968000000000004,-0.012244,-0.00190354,0.0,0 STARLINK-4085,1 53262U 22086W   22283.58334491 -.00190354  00000-0 -12244-1 0  9998,2 53262  53.2174  28.0989 0001649  59.1306  22.9680 15.08898784  1301,6917.701,95.434,540.706,538.425,0.0
53262.0,STARLINK-4085,PAYLOAD,2022-10-10 22:00:01,15.08957248,0.0001721999999999,53.2173,26.6023,49.5172,44.267,-0.021652,-0.00330455,0.0,0 STARLINK-4085,1 53262U 22086W   22283.91668981 -.00330455  00000-0 -21652-1 0  9990,2 53262  53.2173  26.6023 0001722  49.5172  44.2670 15.08957248 12814,6917.522,95.43,540.578,538.196,0.0
53262.0,STARLINK-4085,PAYLOAD,2022-10-11 06:00:00,15.08791618,0.0001452,53.2177,25.1016,57.9246,47.3612,0.0012714,0.00019977,0.0,0 STARLINK-4085,1 53262U 22086W   22284.25001157  .00019977  00000-0  12714-2 0  9995,2 53262  53.2177  25.1016 0001452  57.9246  47.3612 15.08791618 12861,6918.028,95.441,540.898,538.889,0.0
53262.0,STARLINK-4085,PAYLOAD,2022-10-11 14:00:01,15.08752217,0.0001795,53.2177,23.6128,56.028,60.8326,0.0083232,0.0013439,0.0,0 STARLINK-4085,1 53262U 22086W   22284.58334491  .00134390  00000-0  83232-2 0  9991,2 53262  53.2177  23.6128 0001795  56.0280  60.8326 15.08752217  1307,6918.149,95.443,541.256,538.7719999999998,0.0
53262.0,STARLINK-4085,PAYLOAD,2022-10-11 22:00:00,15.08837038,0.0001801,53.2173,22.1173,56.0361,72.3735,-3.3113e-05,-8.15e-06,0.0,0 STARLINK-4085,1 53262U 22086W   22284.91667824 -.00000815  00000-0 -33113-4 0  9998,2 53262  53.2173  22.1173 0001801  56.0361  72.3735 15.08837038  1302,6917.889,95.438,541.0,538.509,0.0
53262.0,STARLINK-4085,PAYLOAD,2022-10-12 14:00:01,15.08803977,0.000164,53.218,19.1214,55.164,96.3918,0.0070683,0.00113915,0.0,0 STARLINK-4085,1 53262U 22086W   22285.58334491  .00113915  00000-0  70683-2 0  9998,2 53262  53.2180  19.1214 0001640  55.1640  96.3918 15.08803977  1307,6917.99,95.44,540.99,538.721,0.0
53262.0,STARLINK-4085,PAYLOAD,2022-10-12 22:00:00,15.08909061,0.0001434,53.2174,17.6267,61.1403,102.0089,-0.0069361,-0.00109212,0.0,0 STARLINK-4085,1 53262U 22086W   22285.91667824 -.00109212  00000-0 -69361-2 0  9992,2 53262  53.2174  17.6267 0001434  61.1403 102.0089 15.08909061 13113,6917.669,95.433,540.526,538.5419999999998,0.0
53262.0,STARLINK-4085,PAYLOAD,2022-10-13 14:00:01,15.08949695,0.000153,53.2179,14.6344,44.3261,141.9755,-0.0097422,-0.00152528,0.0,0 STARLINK-4085,1 53262U 22086W   22286.58334491 -.00152528  00000-0 -97422-2 0  9994,2 53262  53.2179  14.6344 0001530  44.3261 141.9755 15.08949695  1300,6917.545,95.431,540.4680000000002,538.352,0.0
53262.0,STARLINK-4085,PAYLOAD,2022-10-13 20:00:01,15.08835807,0.0001536,53.2172,13.5131,37.2529,67.8755,0.00011481,1.539e-05,0.0,0 STARLINK-4085,1 53262U 22086W   22286.83335648  .00001539  00000-0  11481-3 0  9992,2 53262  53.2172  13.5131 0001536  37.2529  67.8755 15.08835807 13251,6917.893,95.438,540.821,538.696,0.0
53262.0,STARLINK-4085,PAYLOAD,2022-10-13 22:00:00,15.08837822,0.0001495,53.2174,13.1387,39.2751,158.6878,-0.00012639,-2.299e-05,0.0,0 STARLINK-4085,1 53262U 22086W   22286.91667824 -.00002299  00000-0 -12639-3 0  9997,2 53262  53.2174  13.1387 0001495  39.2751 158.6878 15.08837822  1302,6917.887,95.438,540.786,538.7180000000002,0.0
